start=new Date('2021-09-28T00:00:00.000Z').valueOf();
sats=[{"COUNTRY_CODE":"US","PERIOD":"95.592","OBJECT_ID":"2020-074AY","ELEMENT_SET_NO":"999","INCLINATION":"53.0574","RCS_SIZE":"LARGE","MEAN_ANOMALY":"223.0058","REV_AT_EPOCH":"5203","MEAN_MOTION_DDOT":"0.0000000000000","FILE":"3131463","CENTER_NAME":"EARTH","GP_ID":"185667641","APOAPSIS":"552.215","PERIAPSIS":"542.224","CLASSIFICATION_TYPE":"U","SITE":"AFETR","TLE_LINE1":"1 46785U 20074AY  21270.65198749  .00001076  00000-0  91262-4 0  9992","RA_OF_ASC_NODE":"42.2107","OBJECT_TYPE":"PAYLOAD","LAUNCH_DATE":"2020-10-24","ARG_OF_PERICENTER":"137.1495","TLE_LINE2":"2 46785  53.0574  42.2107 0007213 137.1495 223.0058 15.06398125 52035","BSTAR":"0.00009126200000","MEAN_ELEMENT_THEORY":"SGP4","EPOCH":"2021-09-27T15:38:51.719136","SEMIMAJOR_AXIS":"6925.354","EPHEMERIS_TYPE":"0","DECAY_DATE":null,"ECCENTRICITY":"0.00072130","TIME_SYSTEM":"UTC","OBJECT_NAME":"STARLINK-1883","MEAN_MOTION_DOT":"0.00001076","NORAD_CAT_ID":"46785","MEAN_MOTION":"15.06398125","REF_FRAME":"TEME"},{"CLASSIFICATION_TYPE":"U","PERIAPSIS":"544.189","APOAPSIS":"550.294","SITE":"AFETR","TLE_LINE1":"1 46786U 20074AZ  21270.69806017 -.00000411  00000-0 -86054-5 0  9999","RA_OF_ASC_NODE":"21.9989","OBJECT_TYPE":"PAYLOAD","GP_ID":"185667392","REV_AT_EPOCH":"5232","MEAN_ANOMALY":"25.0385","MEAN_MOTION_DDOT":"0.0000000000000","FILE":"3131463","CENTER_NAME":"EARTH","PERIOD":"95.593","COUNTRY_CODE":"US","OBJECT_ID":"2020-074AZ","ELEMENT_SET_NO":"999","INCLINATION":"53.0524","RCS_SIZE":"LARGE","REF_FRAME":"TEME","NORAD_CAT_ID":"46786","MEAN_MOTION":"15.06390952","ECCENTRICITY":"0.00044080","DECAY_DATE":null,"TIME_SYSTEM":"UTC","EPHEMERIS_TYPE":"0","OBJECT_NAME":"STARLINK-1893","MEAN_MOTION_DOT":"-0.00000411","TLE_LINE2":"2 46786  53.0524  21.9989 0004408 335.0390  25.0385 15.06390952 52324","MEAN_ELEMENT_THEORY":"SGP4","BSTAR":"-0.00000860540000","EPOCH":"2021-09-27T16:45:12.398688","SEMIMAJOR_AXIS":"6925.376","LAUNCH_DATE":"2020-10-24","ARG_OF_PERICENTER":"335.0390"},{"ARG_OF_PERICENTER":"255.8923","LAUNCH_DATE":"2020-10-24","SEMIMAJOR_AXIS":"6925.338","EPOCH":"2021-09-27T18:10:07.454208","TLE_LINE2":"2 46787  53.0516  21.7401 0004891 255.8923 104.1522 15.06403369 52330","MEAN_ELEMENT_THEORY":"SGP4","BSTAR":"0.00000692480000","MEAN_MOTION_DOT":"-0.00000180","OBJECT_NAME":"STARLINK-1899","EPHEMERIS_TYPE":"0","TIME_SYSTEM":"UTC","DECAY_DATE":null,"ECCENTRICITY":"0.00048910","NORAD_CAT_ID":"46787","MEAN_MOTION":"15.06403369","REF_FRAME":"TEME","RCS_SIZE":"LARGE","INCLINATION":"53.0516","ELEMENT_SET_NO":"999","OBJECT_ID":"2020-074BA","COUNTRY_CODE":"US","PERIOD":"95.592","CENTER_NAME":"EARTH","FILE":"3131463","MEAN_MOTION_DDOT":"0.0000000000000","REV_AT_EPOCH":"5233","MEAN_ANOMALY":"104.1522","GP_ID":"185668643","TLE_LINE1":"1 46787U 20074BA  21270.75703072 -.00000180  00000-0  69248-5 0  9992","OBJECT_TYPE":"PAYLOAD","RA_OF_ASC_NODE":"21.7401","SITE":"AFETR","APOAPSIS":"550.590","PERIAPSIS":"543.816","CLASSIFICATION_TYPE":"U"},{"REV_AT_EPOCH":"5232","MEAN_ANOMALY":"33.4566","MEAN_MOTION_DDOT":"0.0000000000000","FILE":"3131463","CENTER_NAME":"EARTH","COUNTRY_CODE":"US","PERIOD":"95.592","OBJECT_ID":"2020-074BB","ELEMENT_SET_NO":"999","INCLINATION":"53.0585","RCS_SIZE":"LARGE","APOAPSIS":"551.060","CLASSIFICATION_TYPE":"U","PERIAPSIS":"543.354","SITE":"AFETR","RA_OF_ASC_NODE":"22.0612","TLE_LINE1":"1 46788U 20074BB  21270.68331622  .00002218  00000-0  16777-3 0  9993","OBJECT_TYPE":"PAYLOAD","GP_ID":"185668390","TLE_LINE2":"2 46788  53.0585  22.0612 0005564 326.6071  33.4566 15.06402068 52320","MEAN_ELEMENT_THEORY":"SGP4","BSTAR":"0.00016777000000","EPOCH":"2021-09-27T16:23:58.521408","SEMIMAJOR_AXIS":"6925.342","LAUNCH_DATE":"2020-10-24","ARG_OF_PERICENTER":"326.6071","NORAD_CAT_ID":"46788","MEAN_MOTION":"15.06402068","REF_FRAME":"TEME","EPHEMERIS_TYPE":"0","DECAY_DATE":null,"TIME_SYSTEM":"UTC","ECCENTRICITY":"0.00055640","OBJECT_NAME":"STARLINK-1929","MEAN_MOTION_DOT":"0.00002218"},{"MEAN_MOTION_DOT":"0.00002824","OBJECT_NAME":"STARLINK-1930","EPHEMERIS_TYPE":"0","DECAY_DATE":null,"ECCENTRICITY":"0.00014060","TIME_SYSTEM":"UTC","MEAN_MOTION":"15.06402447","NORAD_CAT_ID":"46789","REF_FRAME":"TEME","ARG_OF_PERICENTER":"80.8519","LAUNCH_DATE":"2020-10-24","SEMIMAJOR_AXIS":"6925.341","EPOCH":"2021-09-27T19:45:36.798048","TLE_LINE2":"2 46789  53.0548  51.4393 0001406  80.8519 279.2629 15.06402447 51925","BSTAR":"0.00020839000000","MEAN_ELEMENT_THEORY":"SGP4","GP_ID":"185667142","RA_OF_ASC_NODE":"51.4393","TLE_LINE1":"1 46789U 20074BC  21270.82334257  .00002824  00000-0  20839-3 0  9994","OBJECT_TYPE":"PAYLOAD","SITE":"AFETR","APOAPSIS":"548.180","PERIAPSIS":"546.232","CLASSIFICATION_TYPE":"U","RCS_SIZE":"LARGE","INCLINATION":"53.0548","OBJECT_ID":"2020-074BC","ELEMENT_SET_NO":"999","PERIOD":"95.592","COUNTRY_CODE":"US","CENTER_NAME":"EARTH","FILE":"3131463","MEAN_MOTION_DDOT":"0.0000000000000","REV_AT_EPOCH":"5192","MEAN_ANOMALY":"279.2629"},{"EPOCH":"2021-09-27T19:15:09.078624","SEMIMAJOR_AXIS":"6925.357","TLE_LINE2":"2 46790  53.0560  51.5223 0001765  96.7809 263.3381 15.06397203 51911","MEAN_ELEMENT_THEORY":"SGP4","BSTAR":"-0.00000635490000","LAUNCH_DATE":"2020-10-24","ARG_OF_PERICENTER":"96.7809","REF_FRAME":"TEME","NORAD_CAT_ID":"46790","MEAN_MOTION":"15.06397203","MEAN_MOTION_DOT":"-0.00000376","TIME_SYSTEM":"UTC","DECAY_DATE":null,"ECCENTRICITY":"0.00017650","EPHEMERIS_TYPE":"0","OBJECT_NAME":"STARLINK-1931","FILE":"3131463","CENTER_NAME":"EARTH","MEAN_ANOMALY":"263.3381","REV_AT_EPOCH":"5191","MEAN_MOTION_DDOT":"0.0000000000000","INCLINATION":"53.0560","RCS_SIZE":"LARGE","COUNTRY_CODE":"US","PERIOD":"95.592","OBJECT_ID":"2020-074BD","ELEMENT_SET_NO":"999","SITE":"AFETR","OBJECT_TYPE":"PAYLOAD","TLE_LINE1":"1 46790U 20074BD  21270.80218841 -.00000376  00000-0 -63549-5 0  9993","RA_OF_ASC_NODE":"51.5223","PERIAPSIS":"546.000","CLASSIFICATION_TYPE":"U","APOAPSIS":"548.444","GP_ID":"185667892"},{"EPOCH":"2021-09-27T21:11:56.563584","SEMIMAJOR_AXIS":"6925.374","MEAN_ELEMENT_THEORY":"SGP4","TLE_LINE2":"2 46791  53.0565  51.1795 0001524 100.7577 259.3584 15.06391728 51936","BSTAR":"0.00006586200000","LAUNCH_DATE":"2020-10-24","ARG_OF_PERICENTER":"100.7577","REF_FRAME":"TEME","NORAD_CAT_ID":"46791","MEAN_MOTION":"15.06391728","MEAN_MOTION_DOT":"0.00000699","TIME_SYSTEM":"UTC","DECAY_DATE":null,"ECCENTRICITY":"0.00015240","EPHEMERIS_TYPE":"0","OBJECT_NAME":"STARLINK-1933","FILE":"3131463","CENTER_NAME":"EARTH","REV_AT_EPOCH":"5193","MEAN_ANOMALY":"259.3584","MEAN_MOTION_DDOT":"0.0000000000000","INCLINATION":"53.0565","RCS_SIZE":"LARGE","COUNTRY_CODE":"US","PERIOD":"95.593","ELEMENT_SET_NO":"999","OBJECT_ID":"2020-074BE","SITE":"AFETR","TLE_LINE1":"1 46791U 20074BE  21270.88329356  .00000699  00000-0  65862-4 0  9991","OBJECT_TYPE":"PAYLOAD","RA_OF_ASC_NODE":"51.1795","CLASSIFICATION_TYPE":"U","PERIAPSIS":"546.183","APOAPSIS":"548.294","GP_ID":"185668144"},{"ARG_OF_PERICENTER":"110.7911","LAUNCH_DATE":"2020-10-24","TLE_LINE2":"2 46792  53.0575  41.6484 0001508 110.7911 249.3240 15.06392445 52051","MEAN_ELEMENT_THEORY":"SGP4","BSTAR":"0.00000759140000","SEMIMAJOR_AXIS":"6925.372","EPOCH":"2021-09-27T18:39:20.099808","OBJECT_NAME":"STARLINK-1934","EPHEMERIS_TYPE":"0","ECCENTRICITY":"0.00015080","DECAY_DATE":null,"TIME_SYSTEM":"UTC","MEAN_MOTION_DOT":"-0.00000168","NORAD_CAT_ID":"46792","MEAN_MOTION":"15.06392445","REF_FRAME":"TEME","OBJECT_ID":"2020-074BF","ELEMENT_SET_NO":"999","PERIOD":"95.593","COUNTRY_CODE":"US","RCS_SIZE":"LARGE","INCLINATION":"53.0575","MEAN_MOTION_DDOT":"0.0000000000000","REV_AT_EPOCH":"5205","MEAN_ANOMALY":"249.3240","CENTER_NAME":"EARTH","FILE":"3131463","GP_ID":"185668890","APOAPSIS":"548.281","CLASSIFICATION_TYPE":"U","PERIAPSIS":"546.192","TLE_LINE1":"1 46792U 20074BF  21270.77731597 -.00000168  00000-0  75914-5 0  9996","RA_OF_ASC_NODE":"41.6484","OBJECT_TYPE":"PAYLOAD","SITE":"AFETR"},{"MEAN_MOTION":"15.06396469","NORAD_CAT_ID":"46793","REF_FRAME":"TEME","MEAN_MOTION_DOT":"0.00001231","EPHEMERIS_TYPE":"0","DECAY_DATE":null,"TIME_SYSTEM":"UTC","ECCENTRICITY":"0.00014560","OBJECT_NAME":"STARLINK-1941","EPOCH":"2021-09-27T16:09:22.724352","SEMIMAJOR_AXIS":"6925.359","TLE_LINE2":"2 46793  53.0573  52.1017 0001456 103.7714 256.3437 15.06396469 51891","MEAN_ELEMENT_THEORY":"SGP4","BSTAR":"0.00010156000000","LAUNCH_DATE":"2020-10-24","ARG_OF_PERICENTER":"103.7714","SITE":"AFETR","TLE_LINE1":"1 46793U 20074BG  21270.67317968  .00001231  00000-0  10156-3 0  9994","RA_OF_ASC_NODE":"52.1017","OBJECT_TYPE":"PAYLOAD","APOAPSIS":"548.233","PERIAPSIS":"546.216","CLASSIFICATION_TYPE":"U","GP_ID":"185667642","FILE":"3131463","CENTER_NAME":"EARTH","REV_AT_EPOCH":"5189","MEAN_ANOMALY":"256.3437","MEAN_MOTION_DDOT":"0.0000000000000","INCLINATION":"53.0573","RCS_SIZE":"LARGE","PERIOD":"95.592","COUNTRY_CODE":"US","OBJECT_ID":"2020-074BG","ELEMENT_SET_NO":"999"},{"MEAN_MOTION_DDOT":"0.0000000000000","MEAN_ANOMALY":"251.2256","REV_AT_EPOCH":"5193","CENTER_NAME":"EARTH","FILE":"3131463","OBJECT_ID":"2020-074BH","ELEMENT_SET_NO":"999","PERIOD":"95.593","COUNTRY_CODE":"US","RCS_SIZE":"LARGE","INCLINATION":"53.0553","CLASSIFICATION_TYPE":"U","PERIAPSIS":"546.193","APOAPSIS":"548.311","OBJECT_TYPE":"PAYLOAD","TLE_LINE1":"1 46794U 20074BH  21270.87961308  .00000466  00000-0  50187-4 0  9998","RA_OF_ASC_NODE":"51.1942","SITE":"AFETR","GP_ID":"185667393","MEAN_ELEMENT_THEORY":"SGP4","TLE_LINE2":"2 46794  53.0553  51.1942 0001529 108.8899 251.2256 15.06387395 51933","BSTAR":"0.00005018700000","SEMIMAJOR_AXIS":"6925.387","EPOCH":"2021-09-27T21:06:38.570112","ARG_OF_PERICENTER":"108.8899","LAUNCH_DATE":"2020-10-24","REF_FRAME":"TEME","NORAD_CAT_ID":"46794","MEAN_MOTION":"15.06387395","OBJECT_NAME":"STARLINK-1942","TIME_SYSTEM":"UTC","DECAY_DATE":null,"ECCENTRICITY":"0.00015290","EPHEMERIS_TYPE":"0","MEAN_MOTION_DOT":"0.00000466"}];
